start=new Date('2023-04-24T00:00:00.000Z').valueOf();
sats=[{"SEMIMAJOR_AXIS":"6925.275","RA_OF_ASC_NODE":"170.4749","APOAPSIS":"547.739","OBJECT_TYPE":"PAYLOAD","OBJECT_ID":"2021-041AA","DECAY_DATE":null,"CENTER_NAME":"EARTH","ECCENTRICITY":"0.00008640","NORAD_CAT_ID":"48577","BSTAR":"0.00102810000000","GP_ID":"230630256","CLASSIFICATION_TYPE":"U","ARG_OF_PERICENTER":"73.3209","MEAN_MOTION_DOT":"0.00015075","PERIOD":"95.591","MEAN_MOTION":"15.06423914","MEAN_ANOMALY":"286.7875","SITE":"AFETR","TLE_LINE1":"1 48577U 21041AA  23113.52621649  .00015075  00000-0  10281-2 0  9996","INCLINATION":"53.0514","PERIAPSIS":"546.542","MEAN_MOTION_DDOT":"0.0000000000000","OBJECT_NAME":"STARLINK-2231","FILE":"3892688","EPHEMERIS_TYPE":"0","TIME_SYSTEM":"UTC","REV_AT_EPOCH":"10676","MEAN_ELEMENT_THEORY":"SGP4","RCS_SIZE":"LARGE","LAUNCH_DATE":"2021-05-15","COUNTRY_CODE":"US","REF_FRAME":"TEME","ELEMENT_SET_NO":"999","EPOCH":"2023-04-23T12:37:45.104736","TLE_LINE2":"2 48577  53.0514 170.4749 0000864  73.3209 286.7875 15.06423914106763"},{"MEAN_ELEMENT_THEORY":"SGP4","REV_AT_EPOCH":"10721","TIME_SYSTEM":"UTC","REF_FRAME":"TEME","EPOCH":"2023-04-23T13:20:19.210560","TLE_LINE2":"2 48578  53.0503 170.8526 0001378  83.3459 276.7687 15.06448496107211","ELEMENT_SET_NO":"999","RCS_SIZE":"LARGE","LAUNCH_DATE":"2021-05-15","COUNTRY_CODE":"US","NORAD_CAT_ID":"48578","ECCENTRICITY":"0.00013780","CENTER_NAME":"EARTH","BSTAR":"0.00133560000000","CLASSIFICATION_TYPE":"U","GP_ID":"230636890","MEAN_MOTION_DOT":"0.00019694","ARG_OF_PERICENTER":"83.3459","SEMIMAJOR_AXIS":"6925.200","RA_OF_ASC_NODE":"170.8526","OBJECT_TYPE":"PAYLOAD","APOAPSIS":"548.019","OBJECT_ID":"2021-041AB","DECAY_DATE":null,"TLE_LINE1":"1 48578U 21041AB  23113.55577790  .00019694  00000-0  13356-2 0  9994","INCLINATION":"53.0503","SITE":"AFETR","MEAN_ANOMALY":"276.7687","PERIAPSIS":"546.111","MEAN_MOTION_DDOT":"0.0000000000000","EPHEMERIS_TYPE":"0","FILE":"3892786","OBJECT_NAME":"STARLINK-2232","PERIOD":"95.589","MEAN_MOTION":"15.06448496"},{"ARG_OF_PERICENTER":"82.1840","MEAN_MOTION_DOT":"0.00017150","CLASSIFICATION_TYPE":"U","GP_ID":"230659444","BSTAR":"0.00116630000000","NORAD_CAT_ID":"48579","CENTER_NAME":"EARTH","ECCENTRICITY":"0.00008790","DECAY_DATE":null,"OBJECT_ID":"2021-041AC","APOAPSIS":"547.712","OBJECT_TYPE":"PAYLOAD","RA_OF_ASC_NODE":"170.2239","SEMIMAJOR_AXIS":"6925.239","FILE":"3892831","OBJECT_NAME":"STARLINK-2233","EPHEMERIS_TYPE":"0","MEAN_MOTION_DDOT":"0.0000000000000","PERIAPSIS":"546.495","TLE_LINE1":"1 48579U 21041AC  23113.58148980  .00017150  00000-0  11663-2 0  9997","SITE":"AFETR","INCLINATION":"53.0507","MEAN_ANOMALY":"277.9249","MEAN_MOTION":"15.06435845","PERIOD":"95.590","MEAN_ELEMENT_THEORY":"SGP4","TIME_SYSTEM":"UTC","REV_AT_EPOCH":"10677","TLE_LINE2":"2 48579  53.0507 170.2239 0000879  82.1840 277.9249 15.06435845106778","EPOCH":"2023-04-23T13:57:20.718720","ELEMENT_SET_NO":"999","REF_FRAME":"TEME","COUNTRY_CODE":"US","LAUNCH_DATE":"2021-05-15","RCS_SIZE":"LARGE"},{"FILE":"3892831","OBJECT_NAME":"STARLINK-2234","EPHEMERIS_TYPE":"0","MEAN_MOTION_DDOT":"0.0000000000000","PERIAPSIS":"546.253","TLE_LINE1":"1 48580U 21041AD  23113.61418285  .00011977  00000-0  82097-3 0  9992","SITE":"AFETR","INCLINATION":"53.0510","MEAN_ANOMALY":"260.9833","MEAN_MOTION":"15.06427776","PERIOD":"95.590","ARG_OF_PERICENTER":"99.1299","MEAN_MOTION_DOT":"0.00011977","CLASSIFICATION_TYPE":"U","GP_ID":"230658697","BSTAR":"0.00082097000000","NORAD_CAT_ID":"48580","CENTER_NAME":"EARTH","ECCENTRICITY":"0.00012640","OBJECT_ID":"2021-041AD","DECAY_DATE":null,"APOAPSIS":"548.004","OBJECT_TYPE":"PAYLOAD","RA_OF_ASC_NODE":"145.0755","SEMIMAJOR_AXIS":"6925.263","EPOCH":"2023-04-23T14:44:25.398240","TLE_LINE2":"2 48580  53.0510 145.0755 0001264  99.1299 260.9833 15.06427776107138","ELEMENT_SET_NO":"999","REF_FRAME":"TEME","COUNTRY_CODE":"US","LAUNCH_DATE":"2021-05-15","RCS_SIZE":"LARGE","MEAN_ELEMENT_THEORY":"SGP4","REV_AT_EPOCH":"10713","TIME_SYSTEM":"UTC"},{"MEAN_MOTION":"15.06406189","PERIOD":"95.592","PERIAPSIS":"546.382","MEAN_ANOMALY":"261.2243","TLE_LINE1":"1 48581U 21041AE  23113.77454433 -.00001626  00000-0 -90285-4 0  9996","SITE":"AFETR","INCLINATION":"53.0519","FILE":"3892831","EPHEMERIS_TYPE":"0","OBJECT_NAME":"STARLINK-2235","MEAN_MOTION_DDOT":"0.0000000000000","RA_OF_ASC_NODE":"134.3675","SEMIMAJOR_AXIS":"6925.330","DECAY_DATE":null,"OBJECT_ID":"2021-041AE","APOAPSIS":"548.008","OBJECT_TYPE":"PAYLOAD","BSTAR":"-0.00009028500000","ECCENTRICITY":"0.00011740","CENTER_NAME":"EARTH","NORAD_CAT_ID":"48581","MEAN_MOTION_DOT":"-0.00001626","ARG_OF_PERICENTER":"98.8879","GP_ID":"230658447","CLASSIFICATION_TYPE":"U","RCS_SIZE":"LARGE","LAUNCH_DATE":"2021-05-15","COUNTRY_CODE":"US","REF_FRAME":"TEME","ELEMENT_SET_NO":"999","EPOCH":"2023-04-23T18:35:20.630112","TLE_LINE2":"2 48581  53.0519 134.3675 0001174  98.8879 261.2243 15.06406189107303","TIME_SYSTEM":"UTC","REV_AT_EPOCH":"10730","MEAN_ELEMENT_THEORY":"SGP4"},{"MEAN_MOTION":"15.06421470","PERIOD":"95.591","PERIAPSIS":"546.202","MEAN_ANOMALY":"269.1100","TLE_LINE1":"1 48582U 21041AF  23113.55709244  .00010053  00000-0  69245-3 0  9999","INCLINATION":"53.0526","SITE":"AFETR","FILE":"3892831","EPHEMERIS_TYPE":"0","OBJECT_NAME":"STARLINK-2236","MEAN_MOTION_DDOT":"0.0000000000000","RA_OF_ASC_NODE":"135.4968","SEMIMAJOR_AXIS":"6925.283","OBJECT_ID":"2021-041AF","DECAY_DATE":null,"APOAPSIS":"548.093","OBJECT_TYPE":"PAYLOAD","BSTAR":"0.00069245000000","CENTER_NAME":"EARTH","ECCENTRICITY":"0.00013650","NORAD_CAT_ID":"48582","ARG_OF_PERICENTER":"91.0045","MEAN_MOTION_DOT":"0.00010053","GP_ID":"230659699","CLASSIFICATION_TYPE":"U","RCS_SIZE":"LARGE","LAUNCH_DATE":"2021-05-15","COUNTRY_CODE":"US","REF_FRAME":"TEME","ELEMENT_SET_NO":"999","TLE_LINE2":"2 48582  53.0526 135.4968 0001365  91.0045 269.1100 15.06421470107265","EPOCH":"2023-04-23T13:22:12.786816","REV_AT_EPOCH":"10726","TIME_SYSTEM":"UTC","MEAN_ELEMENT_THEORY":"SGP4"},{"PERIOD":"95.588","MEAN_MOTION":"15.06459145","TLE_LINE1":"1 48583U 21041AG  23113.69484311  .00023667  00000-0  15999-2 0  9991","INCLINATION":"53.0504","SITE":"AFETR","MEAN_ANOMALY":"261.8087","PERIAPSIS":"546.268","MEAN_MOTION_DDOT":"0.0000000000000","OBJECT_NAME":"STARLINK-2237","FILE":"3892831","EPHEMERIS_TYPE":"0","SEMIMAJOR_AXIS":"6925.167","RA_OF_ASC_NODE":"179.7193","APOAPSIS":"547.796","OBJECT_TYPE":"PAYLOAD","OBJECT_ID":"2021-041AG","DECAY_DATE":null,"NORAD_CAT_ID":"48583","ECCENTRICITY":"0.00011030","CENTER_NAME":"EARTH","BSTAR":"0.00159990000000","CLASSIFICATION_TYPE":"U","GP_ID":"230659945","MEAN_MOTION_DOT":"0.00023667","ARG_OF_PERICENTER":"98.3027","RCS_SIZE":"LARGE","COUNTRY_CODE":"US","LAUNCH_DATE":"2021-05-15","REF_FRAME":"TEME","EPOCH":"2023-04-23T16:40:34.444704","TLE_LINE2":"2 48583  53.0504 179.7193 0001103  98.3027 261.8087 15.06459145106658","ELEMENT_SET_NO":"999","REV_AT_EPOCH":"10665","TIME_SYSTEM":"UTC","MEAN_ELEMENT_THEORY":"SGP4"},{"MEAN_ELEMENT_THEORY":"SGP4","REV_AT_EPOCH":"10664","TIME_SYSTEM":"UTC","EPOCH":"2023-04-23T16:03:24.084000","TLE_LINE2":"2 48584  53.0523 179.8328 0001463  89.0502 271.0655 15.06466894106647","ELEMENT_SET_NO":"999","REF_FRAME":"TEME","COUNTRY_CODE":"US","LAUNCH_DATE":"2021-05-15","RCS_SIZE":"LARGE","ARG_OF_PERICENTER":"89.0502","MEAN_MOTION_DOT":"0.00021824","CLASSIFICATION_TYPE":"U","GP_ID":"230658197","BSTAR":"0.00147680000000","NORAD_CAT_ID":"48584","ECCENTRICITY":"0.00014630","CENTER_NAME":"EARTH","OBJECT_ID":"2021-041AH","DECAY_DATE":null,"APOAPSIS":"548.022","OBJECT_TYPE":"PAYLOAD","RA_OF_ASC_NODE":"179.8328","SEMIMAJOR_AXIS":"6925.144","EPHEMERIS_TYPE":"0","FILE":"3892831","OBJECT_NAME":"STARLINK-2238","MEAN_MOTION_DDOT":"0.0000000000000","PERIAPSIS":"545.995","TLE_LINE1":"1 48584U 21041AH  23113.66902875  .00021824  00000-0  14768-2 0  9995","SITE":"AFETR","INCLINATION":"53.0523","MEAN_ANOMALY":"271.0655","MEAN_MOTION":"15.06466894","PERIOD":"95.588"},{"PERIOD":"95.590","MEAN_MOTION":"15.06440959","MEAN_MOTION_DDOT":"0.0000000000000","EPHEMERIS_TYPE":"0","FILE":"3892831","OBJECT_NAME":"STARLINK-2240","MEAN_ANOMALY":"273.0394","INCLINATION":"53.0536","TLE_LINE1":"1 48585U 21041AJ  23113.68007696  .00006401  00000-0  44772-3 0  9998","SITE":"AFETR","PERIAPSIS":"546.154","APOAPSIS":"548.022","OBJECT_TYPE":"PAYLOAD","OBJECT_ID":"2021-041AJ","DECAY_DATE":null,"SEMIMAJOR_AXIS":"6925.223","RA_OF_ASC_NODE":"179.7790","GP_ID":"230658948","CLASSIFICATION_TYPE":"U","ARG_OF_PERICENTER":"87.0749","MEAN_MOTION_DOT":"0.00006401","ECCENTRICITY":"0.00013490","CENTER_NAME":"EARTH","NORAD_CAT_ID":"48585","BSTAR":"0.00044772000000","LAUNCH_DATE":"2021-05-15","COUNTRY_CODE":"US","RCS_SIZE":"LARGE","ELEMENT_SET_NO":"999","EPOCH":"2023-04-23T16:19:18.649344","TLE_LINE2":"2 48585  53.0536 179.7790 0001349  87.0749 273.0394 15.06440959106644","REF_FRAME":"TEME","REV_AT_EPOCH":"10664","TIME_SYSTEM":"UTC","MEAN_ELEMENT_THEORY":"SGP4"},{"REV_AT_EPOCH":"10663","TIME_SYSTEM":"UTC","MEAN_ELEMENT_THEORY":"SGP4","RCS_SIZE":"LARGE","COUNTRY_CODE":"US","LAUNCH_DATE":"2021-05-15","REF_FRAME":"TEME","TLE_LINE2":"2 48586  53.0515 180.1159 0001371  93.7190 266.3956 15.06460584106630","EPOCH":"2023-04-23T14:33:10.332576","ELEMENT_SET_NO":"999","RA_OF_ASC_NODE":"180.1159","SEMIMAJOR_AXIS":"6925.163","OBJECT_ID":"2021-041AK","DECAY_DATE":null,"OBJECT_TYPE":"PAYLOAD","APOAPSIS":"547.977","BSTAR":"0.00182430000000","NORAD_CAT_ID":"48586","CENTER_NAME":"EARTH","ECCENTRICITY":"0.00013710","ARG_OF_PERICENTER":"93.7190","MEAN_MOTION_DOT":"0.00027041","CLASSIFICATION_TYPE":"U","GP_ID":"230659199","MEAN_MOTION":"15.06460584","PERIOD":"95.588","PERIAPSIS":"546.078","TLE_LINE1":"1 48586U 21041AK  23113.60636959  .00027041  00000-0  18243-2 0  9997","INCLINATION":"53.0515","SITE":"AFETR","MEAN_ANOMALY":"266.3956","FILE":"3892831","EPHEMERIS_TYPE":"0","OBJECT_NAME":"STARLINK-2241","MEAN_MOTION_DDOT":"0.0000000000000"}];
